[{"OBJECT_ID":"1999-057AV","OBJECT_NAME":"CZ-4 DEB","NORAD_CAT_ID":"26159","OBJECT_TYPE":"DEBRIS","PERIOD":"103.604","INCLINATION":"99.2287","ECCENTRICITY":"0.03348930","MEAN_MOTION":"13.89910271","TLE_LINE1":"1 26159U 99057AV  21271.60199253  .00001977  00000-0  10450-2 0  9997","TLE_LINE2":"2 26159  99.2287 198.0658 0334893  14.6854 107.6800 13.89910271 87678"},{"OBJECT_ID":"1999-057AY","OBJECT_NAME":"CZ-4 DEB","NORAD_CAT_ID":"26162","OBJECT_TYPE":"DEBRIS","PERIOD":"102.544","INCLINATION":"99.2324","ECCENTRICITY":"0.02815880","MEAN_MOTION":"14.04271546","TLE_LINE1":"1 26162U 99057AY  21271.47320296  .00000611  00000-0  29052-3 0  9992","TLE_LINE2":"2 26162  99.2324 277.6989 0281588 108.0729 255.1325 14.04271546 99932"},{"OBJECT_ID":"1999-057BE","OBJECT_NAME":"CZ-4 DEB","NORAD_CAT_ID":"26168","OBJECT_TYPE":"DEBRIS","PERIOD":"100.411","INCLINATION":"98.8200","ECCENTRICITY":"0.01040350","MEAN_MOTION":"14.34101683","TLE_LINE1":"1 26168U 99057BE  21272.43015259  .00000081  00000-0  43625-4 0  9999","TLE_LINE2":"2 26168  98.8200 248.5272 0104035 326.3527 187.1892 14.34101683126931"},{"OBJECT_ID":"1999-057BM","OBJECT_NAME":"CZ-4 DEB","NORAD_CAT_ID":"26175","OBJECT_TYPE":"DEBRIS","PERIOD":"104.571","INCLINATION":"98.8174","ECCENTRICITY":"0.03395690","MEAN_MOTION":"13.77060881","TLE_LINE1":"1 26175U 99057BM  21271.55182631  .00000184  00000-0  14658-3 0  9995","TLE_LINE2":"2 26175  98.8174 216.2801 0339569  62.3427 301.1757 13.77060881 81766"},{"OBJECT_ID":"1999-057BQ","OBJECT_NAME":"CZ-4 DEB","NORAD_CAT_ID":"26178","OBJECT_TYPE":"DEBRIS","PERIOD":"97.400","INCLINATION":"98.5687","ECCENTRICITY":"0.00435580","MEAN_MOTION":"14.78433219","TLE_LINE1":"1 26178U 99057BQ  21272.25867652  .00003118  00000-0  42919-3 0  9990","TLE_LINE2":"2 26178  98.5687 268.8716 0043558  76.7542 296.2631 14.78433219145105"},{"OBJECT_ID":"1999-057BT","OBJECT_NAME":"CZ-4 DEB","NORAD_CAT_ID":"26181","OBJECT_TYPE":"DEBRIS","PERIOD":"98.632","INCLINATION":"98.5843","ECCENTRICITY":"0.00154100","MEAN_MOTION":"14.59977926","TLE_LINE1":"1 26181U 99057BT  21272.30262442  .00000198  00000-0  51897-4 0  9997","TLE_LINE2":"2 26181  98.5843  24.2100 0015410  27.8018 358.3835 14.59977926145951"},{"OBJECT_ID":"1999-057BW","OBJECT_NAME":"CZ-4 DEB","NORAD_CAT_ID":"26184","OBJECT_TYPE":"DEBRIS","PERIOD":"100.355","INCLINATION":"98.8349","ECCENTRICITY":"0.01087650","MEAN_MOTION":"14.34908854","TLE_LINE1":"1 26184U 99057BW  21272.25024012  .00000176  00000-0  73890-4 0  9996","TLE_LINE2":"2 26184  98.8349 260.2681 0108765 339.8426  19.8479 14.34908854126464"},{"OBJECT_ID":"1999-057BZ","OBJECT_NAME":"CZ-4 DEB","NORAD_CAT_ID":"26187","OBJECT_TYPE":"DEBRIS","PERIOD":"97.370","INCLINATION":"98.5220","ECCENTRICITY":"0.00580280","MEAN_MOTION":"14.78894565","TLE_LINE1":"1 26187U 99057BZ  21271.53353286  .00000433  00000-0  65222-4 0  9993","TLE_LINE2":"2 26187  98.5220 186.8322 0058028  84.1540 276.6281 14.78894565158943"},{"OBJECT_ID":"1999-057CA","OBJECT_NAME":"CZ-4 DEB","NORAD_CAT_ID":"26188","OBJECT_TYPE":"DEBRIS","PERIOD":"94.766","INCLINATION":"98.8162","ECCENTRICITY":"0.00160500","MEAN_MOTION":"15.19527520","TLE_LINE1":"1 26188U 99057CA  21272.18356573  .00029248  00000-0  13715-2 0  9991","TLE_LINE2":"2 26188  98.8162  37.8491 0016050 207.1008 275.6377 15.19527520155648"},{"OBJECT_ID":"1999-057CD","OBJECT_NAME":"CZ-4 DEB","NORAD_CAT_ID":"26191","OBJECT_TYPE":"DEBRIS","PERIOD":"99.880","INCLINATION":"98.7205","ECCENTRICITY":"0.00981790","MEAN_MOTION":"14.41730349","TLE_LINE1":"1 26191U 99057CD  21272.01512920  .00000347  00000-0  11451-3 0  9992","TLE_LINE2":"2 26191  98.7205 280.5752 0098179 163.5353 251.9035 14.41730349129521"},{"OBJECT_ID":"1999-057CF","OBJECT_NAME":"CZ-4 DEB","NORAD_CAT_ID":"26193","OBJECT_TYPE":"DEBRIS","PERIOD":"96.981","INCLINATION":"98.5506","ECCENTRICITY":"0.00121540","MEAN_MOTION":"14.84828841","TLE_LINE1":"1 26193U 99057CF  21272.14228448  .00001290  00000-0  15898-3 0  9994","TLE_LINE2":"2 26193  98.5506 154.1024 0012154 160.1761 353.2160 14.84828841157515"},{"OBJECT_ID":"1999-057CG","OBJECT_NAME":"CZ-4 DEB","NORAD_CAT_ID":"26194","OBJECT_TYPE":"DEBRIS","PERIOD":"98.626","INCLINATION":"97.9601","ECCENTRICITY":"0.00519020","MEAN_MOTION":"14.60058459","TLE_LINE1":"1 26194U 99057CG  21272.18104436  .00000569  00000-0  12569-3 0  9999","TLE_LINE2":"2 26194  97.9601 237.8395 0051902   5.6306  62.0248 14.60058459143798"},{"OBJECT_ID":"1999-057CJ","OBJECT_NAME":"CZ-4 DEB","NORAD_CAT_ID":"26196","OBJECT_TYPE":"DEBRIS","PERIOD":"104.640","INCLINATION":"98.7962","ECCENTRICITY":"0.03452400","MEAN_MOTION":"13.76152112","TLE_LINE1":"1 26196U 99057CJ  21271.48266618  .00000134  00000-0  11330-3 0  9997","TLE_LINE2":"2 26196  98.7962 250.4521 0345240 124.6305   0.7700 13.76152112 79879"},{"OBJECT_ID":"1999-057CL","OBJECT_NAME":"CZ-4 DEB","NORAD_CAT_ID":"26198","OBJECT_TYPE":"DEBRIS","PERIOD":"99.552","INCLINATION":"98.6356","ECCENTRICITY":"0.00741610","MEAN_MOTION":"14.46482028","TLE_LINE1":"1 26198U 99057CL  21272.20485153  .00000352  00000-0  10812-3 0  9993","TLE_LINE2":"2 26198  98.6356 266.2509 0074161 276.9619  82.3141 14.46482028133032"},{"OBJECT_ID":"1999-057CM","OBJECT_NAME":"CZ-4 DEB","NORAD_CAT_ID":"26199","OBJECT_TYPE":"DEBRIS","PERIOD":"99.119","INCLINATION":"98.5273","ECCENTRICITY":"0.00822060","MEAN_MOTION":"14.52795238","TLE_LINE1":"1 26199U 99057CM  21271.31745552  .00000700  00000-0  17492-3 0  9995","TLE_LINE2":"2 26199  98.5273 290.0325 0082206 179.9252 247.0815 14.52795238134761"},{"OBJECT_ID":"1999-057CN","OBJECT_NAME":"CZ-4 DEB","NORAD_CAT_ID":"26200","OBJECT_TYPE":"DEBRIS","PERIOD":"98.530","INCLINATION":"98.0840","ECCENTRICITY":"0.00552630","MEAN_MOTION":"14.61488156","TLE_LINE1":"1 26200U 99057CN  21271.41438028  .00000707  00000-0  14930-3 0  9997","TLE_LINE2":"2 26200  98.0840 228.9908 0055263 352.8004   7.2398 14.61488156143711"},{"OBJECT_ID":"1999-057CQ","OBJECT_NAME":"CZ-4 DEB","NORAD_CAT_ID":"26202","OBJECT_TYPE":"DEBRIS","PERIOD":"100.420","INCLINATION":"98.7188","ECCENTRICITY":"0.01117120","MEAN_MOTION":"14.33980601","TLE_LINE1":"1 26202U 99057CQ  21272.10971245  .00000301  00000-0  11622-3 0  9994","TLE_LINE2":"2 26202  98.7188 222.8434 0111712  19.4213  43.1081 14.33980601124596"},{"OBJECT_ID":"1999-057CR","OBJECT_NAME":"CZ-4 DEB","NORAD_CAT_ID":"26203","OBJECT_TYPE":"DEBRIS","PERIOD":"100.667","INCLINATION":"98.1853","ECCENTRICITY":"0.01140320","MEAN_MOTION":"14.30455645","TLE_LINE1":"1 26203U 99057CR  21272.48740788  .00000121  00000-0  57865-4 0  9992","TLE_LINE2":"2 26203  98.1853 106.2726 0114032  48.8418 340.8864 14.30455645122596"},{"OBJECT_ID":"1999-057CT","OBJECT_NAME":"CZ-4 DEB","NORAD_CAT_ID":"26205","OBJECT_TYPE":"DEBRIS","PERIOD":"109.953","INCLINATION":"99.1407","ECCENTRICITY":"0.06520080","MEAN_MOTION":"13.09655467","TLE_LINE1":"1 26205U 99057CT  21272.44220412  .00000109  00000-0  14737-3 0  9993","TLE_LINE2":"2 26205  99.1407  93.4691 0652008 350.5708   8.3637 13.09655467 27404"},{"OBJECT_ID":"1999-057CV","OBJECT_NAME":"CZ-4 DEB","NORAD_CAT_ID":"26207","OBJECT_TYPE":"DEBRIS","PERIOD":"99.182","INCLINATION":"98.5181","ECCENTRICITY":"0.01062640","MEAN_MOTION":"14.51873534","TLE_LINE1":"1 26207U 99057CV  21272.10789825  .00001031  00000-0  24966-3 0  9996","TLE_LINE2":"2 26207  98.5181 322.3671 0106264  28.2753   0.9274 14.51873534131627"},{"OBJECT_ID":"1999-057CW","OBJECT_NAME":"CZ-4 DEB","NORAD_CAT_ID":"26208","OBJECT_TYPE":"DEBRIS","PERIOD":"99.308","INCLINATION":"98.3142","ECCENTRICITY":"0.00764430","MEAN_MOTION":"14.50039997","TLE_LINE1":"1 26208U 99057CW  21271.41426203  .00000240  00000-0  71448-4 0  9997","TLE_LINE2":"2 26208  98.3142 217.0193 0076443   5.5999 117.9936 14.50039997137320"},{"OBJECT_ID":"1999-057CX","OBJECT_NAME":"CZ-4 DEB","NORAD_CAT_ID":"26209","OBJECT_TYPE":"DEBRIS","PERIOD":"98.585","INCLINATION":"98.5319","ECCENTRICITY":"0.00312150","MEAN_MOTION":"14.60667730","TLE_LINE1":"1 26209U 99057CX  21271.48951819  .00000151  00000-0  41225-4 0  9992","TLE_LINE2":"2 26209  98.5319 352.0350 0031215  32.1782 340.2812 14.60667730145469"},{"OBJECT_ID":"1999-057CZ","OBJECT_NAME":"CZ-4 DEB","NORAD_CAT_ID":"26211","OBJECT_TYPE":"DEBRIS","PERIOD":"108.149","INCLINATION":"98.9404","ECCENTRICITY":"0.05460300","MEAN_MOTION":"13.31501724","TLE_LINE1":"1 26211U 99057CZ  21271.17102751  .00000053  00000-0  82350-4 0  9999","TLE_LINE2":"2 26211  98.9404 162.7340 0546030 213.4501 305.6405 13.31501724 44711"},{"OBJECT_ID":"1999-057DC","OBJECT_NAME":"CZ-4 DEB","NORAD_CAT_ID":"26214","OBJECT_TYPE":"DEBRIS","PERIOD":"96.750","INCLINATION":"98.6567","ECCENTRICITY":"0.00319680","MEAN_MOTION":"14.88368809","TLE_LINE1":"1 26214U 99057DC  21272.43787243  .00001679  00000-0  18685-3 0  9991","TLE_LINE2":"2 26214  98.6567 266.4707 0031968  37.2175 119.1770 14.88368809161304"},{"OBJECT_ID":"1999-057DG","OBJECT_NAME":"CZ-4 DEB","NORAD_CAT_ID":"26218","OBJECT_TYPE":"DEBRIS","PERIOD":"98.517","INCLINATION":"98.7465","ECCENTRICITY":"0.00769520","MEAN_MOTION":"14.61677491","TLE_LINE1":"1 26218U 99057DG  21271.33897404  .00001415  00000-0  28361-3 0  9994","TLE_LINE2":"2 26218  98.7465 299.4318 0076952 262.3240  96.9215 14.61677491137902"},{"OBJECT_ID":"1999-057DJ","OBJECT_NAME":"CZ-4 DEB","NORAD_CAT_ID":"26220","OBJECT_TYPE":"DEBRIS","PERIOD":"97.775","INCLINATION":"98.6959","ECCENTRICITY":"0.00741140","MEAN_MOTION":"14.72775566","TLE_LINE1":"1 26220U 99057DJ  21271.49058395  .00000251  00000-0  47071-4 0  9999","TLE_LINE2":"2 26220  98.6959 238.4030 0074114 323.0018 147.6315 14.72775566156148"},{"OBJECT_ID":"1999-057DL","OBJECT_NAME":"CZ-4 DEB","NORAD_CAT_ID":"26222","OBJECT_TYPE":"DEBRIS","PERIOD":"99.524","INCLINATION":"98.6356","ECCENTRICITY":"0.00771470","MEAN_MOTION":"14.46893193","TLE_LINE1":"1 26222U 99057DL  21271.47305162  .00000407  00000-0  12148-3 0  9995","TLE_LINE2":"2 26222  98.6356 274.7621 0077147 280.3491  78.9010 14.46893193134051"}]